{"type": "FeatureCollection", "features": [ {"type": "Feature", "properties": {"norad_id": 66615, "name": "STARLINK-35988", "group": "last-30-days", "lat": -42.766051545460364, "lon": 17.250854351011267, "alt_km": 446.08954828096284, "timestamp": "2025-12-26T07:29:17.191460+00:00", "meta": {"OBJECT_NAME": "STARLINK-35988", "OBJECT_ID": "2025-270AD", "EPOCH": "2025-12-25T16:20:27.897216", "MEAN_MOTION": 15.40700329, "ECCENTRICITY": 0.00016951, "INCLINATION": 43.0013, "RA_OF_ASC_NODE": 117.9088, "ARG_OF_PERICENTER": 260.634, "MEAN_ANOMALY": 99.4325, "EPHEMERIS_TYPE": 0, "CLASSIFICATION_TYPE": "U", "NORAD_CAT_ID": 66615, "ELEMENT_SET_NO": 999, "REV_AT_EPOCH": 618, "BSTAR": 0.0010609961, "MEAN_MOTION_DOT": 0.00044275, "MEAN_MOTION_DDOT": 0}, "tle": {"line1": "1 66615U 25270AD  25359.68087844  .00044275  00000+0  10610-2 0  9990", "line2": "2 66615  43.0013 117.9088 0001695 260.6340  99.4325 15.40700329  6181"}}, "geometry": {"type": "Point", "coordinates": [17.250854351011267, -42.766051545460364]}}, {"type": "Feature", "properties": {"norad_id": 66616, "name": "STARLINK-35391", "group": "last-30-days", "lat": 3.505423377655479, "lon": 117.79288018788853, "alt_km": 442.525337137522, "timestamp": "2025-12-26T07:29:17.191470+00:00", "meta": {"OBJECT_NAME": "STARLINK-35391", "OBJECT_ID": "2025-270AE", "EPOCH": "2025-12-24T08:47:35.797920", "MEAN_MOTION": 15.40729798, "ECCENTRICITY": 9.163e-05, "INCLINATION": 42.9974, "RA_OF_ASC_NODE": 125.2405, "ARG_OF_PERICENTER": 275.8845, "MEAN_ANOMALY": 84.1907, "EPHEMERIS_TYPE": 0, "CLASSIFICATION_TYPE": "U", "NORAD_CAT_ID": 66616, "ELEMENT_SET_NO": 999, "REV_AT_EPOCH": 625, "BSTAR": 0.0012253863, "MEAN_MOTION_DOT": 0.00051279, "MEAN_MOTION_DDOT": 0}, "tle": {"line1": "1 66616U 25270AE  25358.36638655  .00051279  00000+0  12254-2 0  9995", "line2": "2 66616  42.9974 125.2405 0000916 275.8845  84.1907 15.40729798  6250"}}, "geometry": {"type": "Point", "coordinates": [117.79288018788853, 3.505423377655479]}}, {"type": "Feature", "properties": {"norad_id": 66617, "name": "STARLINK-35940", "group": "last-30-days", "lat": -10.329540557378493, "lon": -49.01449557439113, "alt_km": 449.3170017676257, "timestamp": "2025-12-26T07:29:17.191480+00:00", "meta": {"OBJECT_NAME": "STARLINK-35940", "OBJECT_ID": "2025-271A", "EPOCH": "2025-12-25T15:04:28.881120", "MEAN_MOTION": 15.39600088, "ECCENTRICITY": 0.0001206, "INCLINATION": 53.1613, "RA_OF_ASC_NODE": 126.3554, "ARG_OF_PERICENTER": 97.0516, "MEAN_ANOMALY": 263.0626, "EPHEMERIS_TYPE": 0, "CLASSIFICATION_TYPE": "U", "NORAD_CAT_ID": 66617, "ELEMENT_SET_NO": 999, "REV_AT_EPOCH": 619, "BSTAR": 0.0010268, "MEAN_MOTION_DOT": 0.00040863, "MEAN_MOTION_DDOT": 0}, "tle": {"line1": "1 66617U 25271A   25359.62811205  .00040863  00000+0  10268-2 0  9991", "line2": "2 66617  53.1613 126.3554 0001206  97.0516 263.0626 15.39600088  6191"}}, "geometry": {"type": "Point", "coordinates": [-49.01449557439113, -10.329540557378493]}}, {"type": "Feature", "properties": {"norad_id": 66618, "name": "STARLINK-35970", "group": "last-30-days", "lat": 8.473178590033493, "lon": -63.954880486706315, "alt_km": 447.0287795365148, "timestamp": "2025-12-26T07:29:17.191490+00:00", "meta": {"OBJECT_NAME": "STARLINK-35970", "OBJECT_ID": "2025-271B", "EPOCH": "2025-12-25T22:00:01.999584", "MEAN_MOTION": 15.39547316, "ECCENTRICITY": 7.871e-05, "INCLINATION": 53.1603, "RA_OF_ASC_NODE": 124.3207, "ARG_OF_PERICENTER": 81.2172, "MEAN_ANOMALY": 55.8194, "EPHEMERIS_TYPE": 0, "CLASSIFICATION_TYPE": "U", "NORAD_CAT_ID": 66618, "ELEMENT_SET_NO": 999, "REV_AT_EPOCH": 609, "BSTAR": 0.0012847246, "MEAN_MOTION_DOT": 0.00051211, "MEAN_MOTION_DDOT": 0}, "tle": {"line1": "1 66618U 25271B   25359.91668981  .00051211  00000+0  12847-2 0  9999", "line2": "2 66618  53.1603 124.3207 0000787  81.2172  55.8194 15.39547316  6090"}}, "geometry": {"type": "Point", "coordinates": [-63.954880486706315, 8.473178590033493]}}, {"type": "Feature", "properties": {"norad_id": 66619, "name": "STARLINK-35951", "group": "last-30-days", "lat": 46.2284478696517, "lon": 174.17141101239272, "alt_km": 440.1616438936171, "timestamp": "2025-12-26T07:29:17.191500+00:00", "meta": {"OBJECT_NAME": "STARLINK-35951", "OBJECT_ID": "2025-271C", "EPOCH": "2025-12-25T22:00:01.999584", "MEAN_MOTION": 15.39601209, "ECCENTRICITY": 0.00013257, "INCLINATION": 53.1589, "RA_OF_ASC_NODE": 124.5349, "ARG_OF_PERICENTER": 72.3862, "MEAN_ANOMALY": 319.8402, "EPHEMERIS_TYPE": 0, "CLASSIFICATION_TYPE": "U", "NORAD_CAT_ID": 66619, "ELEMENT_SET_NO": 999, "REV_AT_EPOCH": 608, "BSTAR": 0.00061458467, "MEAN_MOTION_DOT": 0.00024246, "MEAN_MOTION_DDOT": 0}, "tle": {"line1": "1 66619U 25271C   25359.91668981  .00024246  00000+0  61458-3 0  9991", "line2": "2 66619  53.1589 124.5349 0001325  72.3862 319.8402 15.39601209  6085"}}, "geometry": {"type": "Point", "coordinates": [174.17141101239272, 46.2284478696517]}}, {"type": "Feature", "properties": {"norad_id": 66620, "name": "STARLINK-35936", "group": "last-30-days", "lat": 10.3104802949411, "lon": 130.61494974581512, "alt_km": 446.35449174579753, "timestamp": "2025-12-26T07:29:17.191512+00:00", "meta": {"OBJECT_NAME": "STARLINK-35936", "OBJECT_ID": "2025-271D", "EPOCH": "2025-12-25T22:00:01.999584", "MEAN_MOTION": 15.39597145, "ECCENTRICITY": 0.00010722, "INCLINATION": 53.1586, "RA_OF_ASC_NODE": 124.6389, "ARG_OF_PERICENTER": 72.5278, "MEAN_ANOMALY": 268.206, "EPHEMERIS_TYPE": 0, "CLASSIFICATION_TYPE": "U", "NORAD_CAT_ID": 66620, "ELEMENT_SET_NO": 999, "REV_AT_EPOCH": 608, "BSTAR": 0.00052854616, "MEAN_MOTION_DOT": 0.00020784, "MEAN_MOTION_DDOT": 0}, "tle": {"line1": "1 66620U 25271D   25359.91668981  .00020784  00000+0  52855-3 0  9997", "line2": "2 66620  53.1586 124.6389 0001072  72.5278 268.2060 15.39597145  6081"}}, "geometry": {"type": "Point", "coordinates": [130.61494974581512, 10.3104802949411]}}, {"type": "Feature", "properties": {"norad_id": 66621, "name": "STARLINK-35847", "group": "last-30-days", "lat": -10.351396897368257, "lon": -49.718259897591736, "alt_km": 442.8083631049876, "timestamp": "2025-12-26T07:29:17.191522+00:00", "meta": {"OBJECT_NAME": "STARLINK-35847", "OBJECT_ID": "2025-271E", "EPOCH": "2025-12-25T22:00:01.999584", "MEAN_MOTION": 15.43821971, "ECCENTRICITY": 0.00014745, "INCLINATION": 53.1603, "RA_OF_ASC_NODE": 124.2834, "ARG_OF_PERICENTER": 62.1623, "MEAN_ANOMALY": 93.6852, "EPHEMERIS_TYPE": 0, "CLASSIFICATION_TYPE": "U", "NORAD_CAT_ID": 66621, "ELEMENT_SET_NO": 999, "REV_AT_EPOCH": 612, "BSTAR": -0.050848095, "MEAN_MOTION_DOT": -0.02077056, "MEAN_MOTION_DDOT": 0}, "tle": {"line1": "1 66621U 25271E   25359.91668981 -.02077056  00000+0 -50848-1 0  9994", "line2": "2 66621  53.1603 124.2834 0001474  62.1623  93.6852 15.43821971  6124"}}, "geometry": {"type": "Point", "coordinates": [-49.718259897591736, -10.351396897368257]}}, {"type": "Feature", "properties": {"norad_id": 66622, "name": "STARLINK-35950", "group": "last-30-days", "lat": -46.09157760438954, "lon": 71.77049056813885, "alt_km": 452.6793220467598, "timestamp": "2025-12-26T07:29:17.191532+00:00", "meta": {"OBJECT_NAME": "STARLINK-35950", "OBJECT_ID": "2025-271F", "EPOCH": "2025-12-25T19:18:10.447776", "MEAN_MOTION": 15.39633449, "ECCENTRICITY": 0.00015196, "INCLINATION": 53.1597, "RA_OF_ASC_NODE": 125.319, "ARG_OF_PERICENTER": 88.4563, "MEAN_ANOMALY": 271.6616, "EPHEMERIS_TYPE": 0, "CLASSIFICATION_TYPE": "U", "NORAD_CAT_ID": 66622, "ELEMENT_SET_NO": 999, "REV_AT_EPOCH": 622, "BSTAR": 0.00054750033, "MEAN_MOTION_DOT": 0.00021572, "MEAN_MOTION_DDOT": 0}, "tle": {"line1": "1 66622U 25271F   25359.80428759  .00021572  00000+0  54750-3 0  9996", "line2": "2 66622  53.1597 125.3190 0001519  88.4563 271.6616 15.39633449  6221"}}, "geometry": {"type": "Point", "coordinates": [71.77049056813885, -46.09157760438954]}}, {"type": "Feature", "properties": {"norad_id": 66623, "name": "STARLINK-35920", "group": "last-30-days", "lat": -46.185865460008635, "lon": -5.585788613071726, "alt_km": 452.43910908517955, "timestamp": "2025-12-26T07:29:17.191541+00:00", "meta": {"OBJECT_NAME": "STARLINK-35920", "OBJECT_ID": "2025-271G", "EPOCH": "2025-12-25T16:24:35.561088", "MEAN_MOTION": 15.39633659, "ECCENTRICITY": 0.00010827, "INCLINATION": 53.1608, "RA_OF_ASC_NODE": 125.9876, "ARG_OF_PERICENTER": 77.7401, "MEAN_ANOMALY": 282.3725, "EPHEMERIS_TYPE": 0, "CLASSIFICATION_TYPE": "U", "NORAD_CAT_ID": 66623, "ELEMENT_SET_NO": 999, "REV_AT_EPOCH": 620, "BSTAR": 0.00058715175, "MEAN_MOTION_DOT": 0.00023168, "MEAN_MOTION_DDOT": 0}, "tle": {"line1": "1 66623U 25271G   25359.68374492  .00023168  00000+0  58715-3 0  9995", "line2": "2 66623  53.1608 125.9876 0001082  77.7401 282.3725 15.39633659  6200"}}, "geometry": {"type": "Point", "coordinates": [-5.585788613071726, -46.185865460008635]}}, {"type": "Feature", "properties": {"norad_id": 66624, "name": "STARLINK-35927", "group": "last-30-days", "lat": 53.13896975807295, "lon": -146.90569778966335, "alt_km": 439.7131092178597, "timestamp": "2025-12-26T07:29:17.191554+00:00", "meta": {"OBJECT_NAME": "STARLINK-35927", "OBJECT_ID": "2025-271H", "EPOCH": "2025-12-25T22:00:01.999584", "MEAN_MOTION": 15.39596238, "ECCENTRICITY": 6.155e-05, "INCLINATION": 53.1594, "RA_OF_ASC_NODE": 124.4844, "ARG_OF_PERICENTER": 67.3878, "MEAN_ANOMALY": 350.5929, "EPHEMERIS_TYPE": 0, "CLASSIFICATION_TYPE": "U", "NORAD_CAT_ID": 66624, "ELEMENT_SET_NO": 999, "REV_AT_EPOCH": 611, "BSTAR": 0.00061693355, "MEAN_MOTION_DOT": 0.00024337, "MEAN_MOTION_DDOT": 0}, "tle": {"line1": "1 66624U 25271H   25359.91668981  .00024337  00000+0  61693-3 0  9999", "line2": "2 66624  53.1594 124.4844 0000615  67.3878 350.5929 15.39596238  6113"}}, "geometry": {"type": "Point", "coordinates": [-146.90569778966335, 53.13896975807295]}}]}